CCSDS_OMM_VERS = 2.0
CREATION_DATE  = 
ORIGINATOR     = 

OBJECT_NAME    = UNKNOWN
OBJECT_ID      = 
CENTER_NAME    = EARTH
REF_FRAME      = TEME
TIME_SYSTEM    = UTC
MEAN_ELEMENT_THEORY = SGP/SGP4

EPOCH          = 2026-03-31T09:15:31.182912
MEAN_MOTION    = 13.48665730
ECCENTRICITY   = .0125499
INCLINATION    = 64.6169
RA_OF_ASC_NODE = 326.6406
ARG_OF_PERICENTER = 239.5456
MEAN_ANOMALY   = 119.3138

EPHEMERIS_TYPE = 0
CLASSIFICATION_TYPE = U
NORAD_CAT_ID   = 87280
ELEMENT_SET_NO = 999
REV_AT_EPOCH   = 54850
BSTAR          = .81978E-3
MEAN_MOTION_DOT = .453E-5
MEAN_MOTION_DDOT = 0

CCSDS_OMM_VERS = 2.0
CREATION_DATE  = 
ORIGINATOR     = 

OBJECT_NAME    = UNKNOWN
OBJECT_ID      = 
CENTER_NAME    = EARTH
REF_FRAME      = TEME
TIME_SYSTEM    = UTC
MEAN_ELEMENT_THEORY = SGP/SGP4

EPOCH          = 2026-03-31T08:21:22.701024
MEAN_MOTION    = 14.19869489
ECCENTRICITY   = .0428307
INCLINATION    = 65.8960
RA_OF_ASC_NODE = 216.1170
ARG_OF_PERICENTER = 301.2124
MEAN_ANOMALY   = 54.7646

EPHEMERIS_TYPE = 0
CLASSIFICATION_TYPE = U
NORAD_CAT_ID   = 87293
ELEMENT_SET_NO = 999
REV_AT_EPOCH   = 62940
BSTAR          = .10669E-2
MEAN_MOTION_DOT = .5651E-4
MEAN_MOTION_DDOT = 0

CCSDS_OMM_VERS = 2.0
CREATION_DATE  = 
ORIGINATOR     = 

OBJECT_NAME    = UNKNOWN
OBJECT_ID      = 
CENTER_NAME    = EARTH
REF_FRAME      = TEME
TIME_SYSTEM    = UTC
MEAN_ELEMENT_THEORY = SGP/SGP4

EPOCH          = 2026-03-30T10:44:16.970496
MEAN_MOTION    = 13.99858334
ECCENTRICITY   = .0024595
INCLINATION    = 100.0947
RA_OF_ASC_NODE = 87.8460
ARG_OF_PERICENTER = 7.2334
MEAN_ANOMALY   = 352.9177

EPHEMERIS_TYPE = 0
CLASSIFICATION_TYPE = U
NORAD_CAT_ID   = 87300
ELEMENT_SET_NO = 999
REV_AT_EPOCH   = 62818
BSTAR          = .11892E-2
MEAN_MOTION_DOT = .1697E-4
MEAN_MOTION_DDOT = 0

CCSDS_OMM_VERS = 2.0
CREATION_DATE  = 
ORIGINATOR     = 

OBJECT_NAME    = UNKNOWN
OBJECT_ID      = 
CENTER_NAME    = EARTH
REF_FRAME      = TEME
TIME_SYSTEM    = UTC
MEAN_ELEMENT_THEORY = SGP/SGP4

EPOCH          = 2026-03-27T19:02:31.998624
MEAN_MOTION    = 14.75893335
ECCENTRICITY   = .0016394
INCLINATION    = 74.0158
RA_OF_ASC_NODE = 115.2207
ARG_OF_PERICENTER = 54.0422
MEAN_ANOMALY   = 306.2269

EPHEMERIS_TYPE = 0
CLASSIFICATION_TYPE = U
NORAD_CAT_ID   = 87304
ELEMENT_SET_NO = 999
REV_AT_EPOCH   = 66197
BSTAR          = .20169E-3
MEAN_MOTION_DOT = .1354E-4
MEAN_MOTION_DDOT = 0

CCSDS_OMM_VERS = 2.0
CREATION_DATE  = 
ORIGINATOR     = 

OBJECT_NAME    = UNKNOWN
OBJECT_ID      = 
CENTER_NAME    = EARTH
REF_FRAME      = TEME
TIME_SYSTEM    = UTC
MEAN_ELEMENT_THEORY = SGP/SGP4

EPOCH          = 2026-03-31T08:07:28.167744
MEAN_MOTION    = 13.70510968
ECCENTRICITY   = .0422854
INCLINATION    = 66.5923
RA_OF_ASC_NODE = 185.1168
ARG_OF_PERICENTER = 345.1571
MEAN_ANOMALY   = 13.7385

EPHEMERIS_TYPE = 0
CLASSIFICATION_TYPE = U
NORAD_CAT_ID   = 87320
ELEMENT_SET_NO = 999
REV_AT_EPOCH   = 60862
BSTAR          = .79476E-3
MEAN_MOTION_DOT = .1253E-4
MEAN_MOTION_DDOT = 0

CCSDS_OMM_VERS = 2.0
CREATION_DATE  = 
ORIGINATOR     = 

OBJECT_NAME    = UNKNOWN
OBJECT_ID      = 
CENTER_NAME    = EARTH
REF_FRAME      = TEME
TIME_SYSTEM    = UTC
MEAN_ELEMENT_THEORY = SGP/SGP4

EPOCH          = 2026-03-30T22:17:17.308320
MEAN_MOTION    = 14.11203793
ECCENTRICITY   = .0065672
INCLINATION    = 90.0046
RA_OF_ASC_NODE = 271.7192
ARG_OF_PERICENTER = 256.3447
MEAN_ANOMALY   = 103.0420

EPHEMERIS_TYPE = 0
CLASSIFICATION_TYPE = U
NORAD_CAT_ID   = 87334
ELEMENT_SET_NO = 999
REV_AT_EPOCH   = 40188
BSTAR          = .13973E-1
MEAN_MOTION_DOT = .25788E-3
MEAN_MOTION_DDOT = 0

CCSDS_OMM_VERS = 2.0
CREATION_DATE  = 
ORIGINATOR     = 

OBJECT_NAME    = UNKNOWN
OBJECT_ID      = 
CENTER_NAME    = EARTH
REF_FRAME      = TEME
TIME_SYSTEM    = UTC
MEAN_ELEMENT_THEORY = SGP/SGP4

EPOCH          = 2026-03-30T22:06:19.520064
MEAN_MOTION    = 14.11508316
ECCENTRICITY   = .00853
INCLINATION    = 89.9937
RA_OF_ASC_NODE = 267.8718
ARG_OF_PERICENTER = 236.0397
MEAN_ANOMALY   = 123.2660

EPHEMERIS_TYPE = 0
CLASSIFICATION_TYPE = U
NORAD_CAT_ID   = 87335
ELEMENT_SET_NO = 999
REV_AT_EPOCH   = 40221
BSTAR          = .15462E-1
MEAN_MOTION_DOT = .29114E-3
MEAN_MOTION_DDOT = 0

CCSDS_OMM_VERS = 2.0
CREATION_DATE  = 
ORIGINATOR     = 

OBJECT_NAME    = UNKNOWN
OBJECT_ID      = 
CENTER_NAME    = EARTH
REF_FRAME      = TEME
TIME_SYSTEM    = UTC
MEAN_ELEMENT_THEORY = SGP/SGP4

EPOCH          = 2026-03-30T09:24:29.945664
MEAN_MOTION    = 13.96898726
ECCENTRICITY   = .006137
INCLINATION    = 82.7526
RA_OF_ASC_NODE = 335.1639
ARG_OF_PERICENTER = 21.7587
MEAN_ANOMALY   = 338.6166

EPHEMERIS_TYPE = 0
CLASSIFICATION_TYPE = U
NORAD_CAT_ID   = 87405
ELEMENT_SET_NO = 999
REV_AT_EPOCH   = 62618
BSTAR          = .1713E-2
MEAN_MOTION_DOT = .2437E-4
MEAN_MOTION_DDOT = 0

CCSDS_OMM_VERS = 2.0
CREATION_DATE  = 
ORIGINATOR     = 

OBJECT_NAME    = UNKNOWN
OBJECT_ID      = 
CENTER_NAME    = EARTH
REF_FRAME      = TEME
TIME_SYSTEM    = UTC
MEAN_ELEMENT_THEORY = SGP/SGP4

EPOCH          = 2026-03-30T20:51:34.520256
MEAN_MOTION    = 14.30852772
ECCENTRICITY   = .0068414
INCLINATION    = 65.7839
RA_OF_ASC_NODE = 41.0842
ARG_OF_PERICENTER = 246.3005
MEAN_ANOMALY   = 145.6786

EPHEMERIS_TYPE = 0
CLASSIFICATION_TYPE = U
NORAD_CAT_ID   = 87426
ELEMENT_SET_NO = 999
REV_AT_EPOCH   = 63805
BSTAR          = .21383E-2
MEAN_MOTION_DOT = .5677E-4
MEAN_MOTION_DDOT = 0

CCSDS_OMM_VERS = 2.0
CREATION_DATE  = 
ORIGINATOR     = 

OBJECT_NAME    = UNKNOWN
OBJECT_ID      = 
CENTER_NAME    = EARTH
REF_FRAME      = TEME
TIME_SYSTEM    = UTC
MEAN_ELEMENT_THEORY = SGP/SGP4

EPOCH          = 2026-03-31T13:42:11.430432
MEAN_MOTION    = 13.90948430
ECCENTRICITY   = .0062768
INCLINATION    = 100.4490
RA_OF_ASC_NODE = 315.5446
ARG_OF_PERICENTER = 283.0288
MEAN_ANOMALY   = 76.3865

EPHEMERIS_TYPE = 0
CLASSIFICATION_TYPE = U
NORAD_CAT_ID   = 87448
ELEMENT_SET_NO = 999
REV_AT_EPOCH   = 62436
BSTAR          = .12472E-2
MEAN_MOTION_DOT = .1534E-4
MEAN_MOTION_DDOT = 0

CCSDS_OMM_VERS = 2.0
CREATION_DATE  = 
ORIGINATOR     = 

OBJECT_NAME    = UNKNOWN
OBJECT_ID      = 
CENTER_NAME    = EARTH
REF_FRAME      = TEME
TIME_SYSTEM    = UTC
MEAN_ELEMENT_THEORY = SGP/SGP4

EPOCH          = 2026-03-24T12:50:11.545440
MEAN_MOTION    = 14.15337608
ECCENTRICITY   = .0510468
INCLINATION    = 65.7661
RA_OF_ASC_NODE = 180.2831
ARG_OF_PERICENTER = 312.9839
MEAN_ANOMALY   = 42.9494

EPHEMERIS_TYPE = 0
CLASSIFICATION_TYPE = U
NORAD_CAT_ID   = 87456
ELEMENT_SET_NO = 999
REV_AT_EPOCH   = 62589
BSTAR          = .6473E-3
MEAN_MOTION_DOT = .4493E-4
MEAN_MOTION_DDOT = 0

CCSDS_OMM_VERS = 2.0
CREATION_DATE  = 
ORIGINATOR     = 

OBJECT_NAME    = UNKNOWN
OBJECT_ID      = 
CENTER_NAME    = EARTH
REF_FRAME      = TEME
TIME_SYSTEM    = UTC
MEAN_ELEMENT_THEORY = SGP/SGP4

EPOCH          = 2026-03-29T22:54:09.456768
MEAN_MOTION    = 13.62210943
ECCENTRICITY   = .0672246
INCLINATION    = 65.8245
RA_OF_ASC_NODE = 331.3615
ARG_OF_PERICENTER = 255.4152
MEAN_ANOMALY   = 111.0660

EPHEMERIS_TYPE = 0
CLASSIFICATION_TYPE = U
NORAD_CAT_ID   = 87517
ELEMENT_SET_NO = 999
REV_AT_EPOCH   = 60751
BSTAR          = .81753E-3
MEAN_MOTION_DOT = .2929E-4
MEAN_MOTION_DDOT = 0

