UNKNOWN                 
1 87280U          26090.38577758  .00000453  00000+0  81978-3 0  9999
2 87280  64.6169 326.6406 0125499 239.5456 119.3138 13.48665730548501
UNKNOWN                 
1 87293U          26090.34817941  .00005651  00000+0  10669-2 0  9993
2 87293  65.8960 216.1170 0428307 301.2124  54.7646 14.19869489629402
UNKNOWN                 
1 87300U          26089.44741864  .00001697  00000+0  11892-2 0  9996
2 87300 100.0947  87.8460 0024595   7.2334 352.9177 13.99858334628180
UNKNOWN                 
1 87304U          26086.79342591  .00001354  00000+0  20169-3 0  9997
2 87304  74.0158 115.2207 0016394  54.0422 306.2269 14.75893335661972
UNKNOWN                 
1 87320U          26090.33852046  .00001253  00000+0  79476-3 0  9994
2 87320  66.5923 185.1168 0422854 345.1571  13.7385 13.70510968608623
UNKNOWN                 
1 87334U          26089.92867255  .00025788  00000+0  13973-1 0  9997
2 87334  90.0046 271.7192 0065672 256.3447 103.0420 14.11203793401884
UNKNOWN                 
1 87335U          26089.92105926  .00029114  00000+0  15462-1 0  9990
2 87335  89.9937 267.8718 0085300 236.0397 123.2660 14.11508316402217
UNKNOWN                 
1 87405U          26089.39201326  .00002437  00000+0  17130-2 0  9994
2 87405  82.7526 335.1639 0061370  21.7587 338.6166 13.96898726626188
UNKNOWN                 
1 87426U          26089.86914954  .00005677  00000+0  21383-2 0  9991
2 87426  65.7839  41.0842 0068414 246.3005 145.6786 14.30852772638057
UNKNOWN                 
1 87448U          26090.57096563  .00001534  00000+0  12472-2 0  9999
2 87448 100.4490 315.5446 0062768 283.0288  76.3865 13.90948430624366
UNKNOWN                 
1 87456U          26083.53485585  .00004493  00000+0  64730-3 0  9994
2 87456  65.7661 180.2831 0510468 312.9839  42.9494 14.15337608625895
UNKNOWN                 
1 87517U          26088.95427612  .00002929  00000+0  81753-3 0  9996
2 87517  65.8245 331.3615 0672246 255.4152 111.0660 13.62210943607518
